NORAD_CAT_ID,OBJECT_NAME,OBJECT_TYPE,EPOCH,MEAN_MOTION,ECCENTRICITY,INCLINATION,RA_OF_ASC_NODE,ARG_OF_PERICENTER,MEAN_ANOMALY,BSTAR,MEAN_MOTION_DOT,MEAN_MOTION_DDOT,TLE_LINE0,TLE_LINE1,TLE_LINE2,SEMIMAJOR_AXIS,PERIOD,APOGEE,PERIGEE,DECAYED
53007.0,STARLINK-4215,PAYLOAD,2023-05-29 18:55:22,15.08837777,0.0001017,53.2168,330.1868,89.2552,270.8557,2.7049e-05,1.43e-06,0.0,0 STARLINK-4215,1 53007U 22076X   23149.78845290  .00000143  00000-0  27049-4 0  9998,2 53007  53.2168 330.1868 0001017  89.2552 270.8557 15.08837777 49630,6917.887,95.438,540.456,539.049,0.0
53007.0,STARLINK-4215,PAYLOAD,2023-05-30 10:49:13,15.08839491,9.65e-05,53.2175,327.2125,87.0658,273.0445,-1.5499e-05,-5.34e-06,0.0,0 STARLINK-4215,1 53007U 22076X   23150.45085371 -.00000534  00000-0 -15499-4 0  9992,2 53007  53.2175 327.2125 0000965  87.0658 273.0445 15.08839491 49732,6917.882,95.438,540.415,539.079,0.0
53007.0,STARLINK-4215,PAYLOAD,2023-05-30 18:46:08,15.08847363,9.49e-05,53.2172,325.7263,87.0662,273.0439,6.2264e-05,7.04e-06,0.0,0 STARLINK-4215,1 53007U 22076X   23150.78204605  .00000704  00000-0  62264-4 0  9990,2 53007  53.2172 325.7263 0000949  87.0662 273.0439 15.08847363 50251,6917.858,95.437,540.379,539.066,0.0
53007.0,STARLINK-4215,PAYLOAD,2023-05-31 10:40:00,15.08835491,9.72e-05,53.2165,322.7545,102.322,257.7881,8.8319e-05,1.118e-05,0.0,0 STARLINK-4215,1 53007U 22076X   23151.44445236  .00001118  00000-0  88319-4 0  9990,2 53007  53.2165 322.7545 0000972 102.3220 257.7881 15.08835491 50350,6917.894,95.438,540.432,539.087,0.0
53007.0,STARLINK-4215,PAYLOAD,2023-05-31 18:36:56,15.08834776,0.0001006,53.2166,321.2671,100.7647,259.3458,0.0001415,1.965e-05,0.0,0 STARLINK-4215,1 53007U 22076X   23151.77565256  .00001965  00000-0  14150-3 0  9992,2 53007  53.2166 321.2671 0001006 100.7647 259.3458 15.08834776 49934,6917.896,95.438,540.457,539.065,0.0
53007.0,STARLINK-4215,PAYLOAD,2023-06-01 10:30:47,15.08837765,9.97e-05,53.2168,318.2938,102.6675,257.4429,6.3832e-05,7.28e-06,0.0,0 STARLINK-4215,1 53007U 22076X   23152.43805313  .00000728  00000-0  63832-4 0  9995,2 53007  53.2168 318.2938 0000997 102.6675 257.4429 15.08837765 50039,6917.887,95.438,540.442,539.063,0.0
53007.0,STARLINK-4215,PAYLOAD,2023-06-01 13:41:33,15.08851364,8.21e-05,53.2168,317.6991,103.7623,256.346,-0.00015403,-2.739e-05,0.0,0 STARLINK-4215,1 53007U 22076X   23152.57053152 -.00002739  00000-0 -15403-3 0  9992,2 53007  53.2168 317.6991 0000821 103.7623 256.3460 15.08851364 50520,6917.846,95.437,540.279,539.143,0.0
53007.0,STARLINK-4215,PAYLOAD,2023-06-02 04:00:01,15.088472,9.53e-05,53.2175,315.0225,86.6987,273.4114,3.7916e-05,3.16e-06,0.0,0 STARLINK-4215,1 53007U 22076X   23153.16668789  .00000316  00000-0  37916-4 0  9997,2 53007  53.2175 315.0225 0000953  86.6987 273.4114 15.08847200 50146,6917.858,95.437,540.383,539.064,0.0
53007.0,STARLINK-4215,PAYLOAD,2023-06-02 18:18:30,15.08836534,9.61e-05,53.2175,312.3453,87.785,272.3252,1.5564e-05,-4e-07,0.0,0 STARLINK-4215,1 53007U 22076X   23153.76285679 -.00000040  00000-0  15564-4 0  9996,2 53007  53.2175 312.3453 0000961  87.7850 272.3252 15.08836534 50700,6917.891,95.438,540.421,539.091,0.0
53007.0,STARLINK-4215,PAYLOAD,2023-06-02 19:53:53,15.08837032,0.0001048,53.2168,312.049,82.6504,277.4607,5.5987e-05,6.03e-06,0.0,0 STARLINK-4215,1 53007U 22076X   23153.82909583  .00000603  00000-0  55987-4 0  9997,2 53007  53.2168 312.0490 0001048  82.6504 277.4607 15.08837032 50240,6917.889,95.438,540.479,539.029,0.0
53007.0,STARLINK-4215,PAYLOAD,2023-06-03 10:12:22,15.0883443,0.000107,53.2169,309.3717,86.6718,273.4396,3.5456e-05,2.76e-06,0.0,0 STARLINK-4215,1 53007U 22076X   23154.42525932  .00000276  00000-0  35456-4 0  9991,2 53007  53.2169 309.3717 0001070  86.6718 273.4396 15.08834430 50338,6917.897,95.438,540.503,539.022,0.0
53007.0,STARLINK-4215,PAYLOAD,2023-06-03 16:33:54,15.08837959,0.0001055,53.2167,308.1824,86.321,273.7902,6.1979e-05,6.99e-06,0.0,0 STARLINK-4215,1 53007U 22076X   23154.69021682  .00000699  00000-0  61979-4 0  9991,2 53007  53.2167 308.1824 0001055  86.3210 273.7902 15.08837959 50378,6917.887,95.438,540.481,539.022,0.0
53007.0,STARLINK-4215,PAYLOAD,2023-06-04 05:16:59,15.08853909,0.0001044,53.2166,305.8037,81.5527,278.5583,-0.00014126,-2.536e-05,0.0,0 STARLINK-4215,1 53007U 22076X   23155.22013114 -.00002536  00000-0 -14126-3 0  9997,2 53007  53.2166 305.8037 0001044  81.5527 278.5583 15.08853909 50925,6917.838,95.437,540.425,538.981,0.0
53007.0,STARLINK-4215,PAYLOAD,2023-06-04 13:13:54,15.08865217,0.0001284,53.2169,304.3161,76.1399,283.9735,-0.00031303,-5.27e-05,0.0,0 STARLINK-4215,1 53007U 22076X   23155.55132940 -.00005270  00000-0 -31303-3 0  9996,2 53007  53.2169 304.3161 0001284  76.1399 283.9735 15.08865217 50501,6917.803,95.436,540.557,538.78,0.0
53007.0,STARLINK-4215,PAYLOAD,2023-06-04 16:24:41,15.08840704,0.0001098,53.2166,303.7214,85.0853,275.0264,8.8844e-05,1.126e-05,0.0,0 STARLINK-4215,1 53007U 22076X   23155.68381562  .00001126  00000-0  88844-4 0  9993,2 53007  53.2166 303.7214 0001098  85.0853 275.0264 15.08840704 50993,6917.878,95.438,540.503,538.984,0.0
53007.0,STARLINK-4215,PAYLOAD,2023-06-05 13:04:42,15.0884199,0.0001102,53.2166,299.8557,84.4263,275.6855,8.8248e-05,1.117e-05,0.0,0 STARLINK-4215,1 53007U 22076X   23156.54493483  .00001117  00000-0  88248-4 0  9993,2 53007  53.2166 299.8557 0001102  84.4263 275.6855 15.08841990 50655,6917.874,95.437,540.502,538.977,0.0
53007.0,STARLINK-4215,PAYLOAD,2023-06-05 16:15:28,15.08844839,9.57e-05,53.2168,299.261,89.564,270.5462,0.00012126,1.643e-05,0.0,0 STARLINK-4215,1 53007U 22076X   23156.67741165  .00001643  00000-0  12126-3 0  9995,2 53007  53.2168 299.2610 0000957  89.5640 270.5462 15.08844839 50678,6917.866,95.437,540.393,539.069,0.0
53007.0,STARLINK-4215,PAYLOAD,2023-06-06 09:44:43,15.08838592,9.07e-05,53.2172,295.9892,95.8412,264.2684,3.747e-05,3.09e-06,0.0,0 STARLINK-4215,1 53007U 22076X   23157.40605731  .00000309  00000-0  37470-4 0  9993,2 53007  53.2172 295.9892 0000907  95.8412 264.2684 15.08838592 51250,6917.885,95.438,540.377,539.122,0.0
53007.0,STARLINK-4215,PAYLOAD,2023-06-06 12:55:29,15.08840934,9.46e-05,53.2171,295.3946,96.2928,263.8172,5.4138e-05,5.74e-06,0.0,0 STARLINK-4215,1 53007U 22076X   23157.53853531  .00000574  00000-0  54138-4 0  9994,2 53007  53.2171 295.3946 0000946  96.2928 263.8172 15.08840934 50803,6917.878,95.437,540.397,539.088,0.0
53007.0,STARLINK-4215,PAYLOAD,2023-06-06 17:41:38,15.08844588,0.0001,53.2169,294.5026,95.5849,264.5257,4.3844e-05,4.1e-06,0.0,0 STARLINK-4215,1 53007U 22076X   23157.73725300  .00000410  00000-0  43844-4 0  9999,2 53007  53.2169 294.5026 0001000  95.5849 264.5257 15.08844588 50830,6917.866,95.437,540.423,539.04,0.0
53007.0,STARLINK-4215,PAYLOAD,2023-06-07 11:10:53,15.0883664,0.000111,53.2163,291.2327,92.1274,267.9845,-5.0562e-05,-1.092e-05,0.0,0 STARLINK-4215,1 53007U 22076X   23158.46590268 -.00001092  00000-0 -50562-4 0  9997,2 53007  53.2163 291.2327 0001110  92.1274 267.9845 15.08836640 50941,6917.891,95.438,540.524,538.988,0.0
53007.0,STARLINK-4215,PAYLOAD,2023-06-07 15:57:03,15.08839436,8.65e-05,53.2168,290.3413,92.3769,267.7322,2.2675e-05,7.3e-07,0.0,0 STARLINK-4215,1 53007U 22076X   23158.66461880  .00000073  00000-0  22675-4 0  9996,2 53007  53.2168 290.3413 0000865  92.3769 267.7322 15.08839436 51449,6917.882,95.438,540.346,539.149,0.0
53007.0,STARLINK-4215,PAYLOAD,2023-06-07 19:07:48,15.08844092,9.6e-05,53.2166,289.7458,92.2172,267.893,5.9906e-05,6.66e-06,0.0,0 STARLINK-4215,1 53007U 22076X   23158.79709485  .00000666  00000-0  59906-4 0  9991,2 53007  53.2166 289.7458 0000960  92.2172 267.8930 15.08844092 50990,6917.868,95.437,540.397,539.069,0.0
53007.0,STARLINK-4215,PAYLOAD,2023-06-08 09:26:18,15.08834399,0.0001075,53.2167,287.0693,90.0108,270.1007,2.4447e-05,1.01e-06,0.0,0 STARLINK-4215,1 53007U 22076X   23159.39326399  .00000101  00000-0  24447-4 0  9993,2 53007  53.2167 287.0693 0001075  90.0108 270.1007 15.08834399 51550,6917.898,95.438,540.506,539.019,0.0
53007.0,STARLINK-4215,PAYLOAD,2023-06-08 12:37:04,15.08836465,0.0001089,53.2171,286.4739,88.7499,271.3618,5.0314e-05,5.13e-06,0.0,0 STARLINK-4215,1 53007U 22076X   23159.52574195  .00000513  00000-0  50314-4 0  9996,2 53007  53.2171 286.4739 0001089  88.7499 271.3618 15.08836465 51109,6917.891,95.438,540.51,539.003,0.0
53007.0,STARLINK-4215,PAYLOAD,2023-06-08 20:33:59,15.08846899,0.0001068,53.2169,284.9872,86.1857,273.9257,0.00012065,1.633e-05,0.0,0 STARLINK-4215,1 53007U 22076X   23159.85693354  .00001633  00000-0  12065-3 0  9995,2 53007  53.2169 284.9872 0001068  86.1857 273.9257 15.08846899 51620,6917.859,95.437,540.463,538.985,0.0
53007.0,STARLINK-4215,PAYLOAD,2023-06-09 14:03:14,15.08832547,0.0001201,53.2167,281.7169,71.5267,288.5856,6.9055e-05,8.11e-06,0.0,0 STARLINK-4215,1 53007U 22076X   23160.58558835  .00000811  00000-0  69055-4 0  9990,2 53007  53.2167 281.7169 0001201  71.5267 288.5856 15.08832547 51738,6917.903,95.438,540.599,538.937,0.0
53007.0,STARLINK-4215,PAYLOAD,2023-06-09 15:38:37,15.08835465,0.0001223,53.2167,281.4195,74.0697,286.0429,9.5232e-05,1.228e-05,0.0,0 STARLINK-4215,1 53007U 22076X   23160.65182637  .00001228  00000-0  95232-4 0  9990,2 53007  53.2167 281.4195 0001223  74.0697 286.0429 15.08835465 51273,6917.894,95.438,540.605,538.913,0.0
53007.0,STARLINK-4215,PAYLOAD,2023-06-10 01:10:56,15.08840928,0.000109,53.2172,279.6333,87.2809,272.8308,6.7348e-05,7.84e-06,0.0,0 STARLINK-4215,1 53007U 22076X   23161.04926252  .00000784  00000-0  67348-4 0  9996,2 53007  53.2172 279.6333 0001090  87.2809 272.8308 15.08840928 51803,6917.878,95.437,540.497,538.989,0.0
53007.0,STARLINK-4215,PAYLOAD,2023-06-10 13:54:01,15.08839635,0.0001104,53.216,277.2574,88.938,271.1739,0.00012049,1.63e-05,0.0,0 STARLINK-4215,1 53007U 22076X   23161.57918398  .00001630  00000-0  12049-3 0  9994,2 53007  53.2160 277.2574 0001104  88.9380 271.1739 15.08839635 51419,6917.882,95.438,540.51,538.983,0.0
